NORAD_CAT_ID,OBJECT_NAME,OBJECT_TYPE,EPOCH,MEAN_MOTION,ECCENTRICITY,INCLINATION,RA_OF_ASC_NODE,ARG_OF_PERICENTER,MEAN_ANOMALY,BSTAR,MEAN_MOTION_DOT,MEAN_MOTION_DDOT,TLE_LINE0,TLE_LINE1,TLE_LINE2,SEMIMAJOR_AXIS,PERIOD,APOGEE,PERIGEE,DECAYED
53435.0,STARLINK-4542,PAYLOAD,2024-07-17 22:22:42,15.08844523,0.0001254,53.2158,276.3402,87.0804,273.0331,0.00035013,5.289e-05,0.0,0 STARLINK-4542,1 53435U 22097AZ  24199.93243947  .00005289  00000-0  35013-3 0  9995,2 53435  53.2158 276.3402 0001254  87.0804 273.0331 15.08844523108221,6917.867,95.437,540.599,538.864,0.0
53435.0,STARLINK-4542,PAYLOAD,2024-07-18 12:41:11,15.08843528,0.0001385,53.2151,273.6622,80.7743,279.3406,0.0003168,4.758e-05,0.0,0 STARLINK-4542,1 53435U 22097AZ  24200.52859957  .00004758  00000-0  31680-3 0  9993,2 53435  53.2151 273.6622 0001385  80.7743 279.3406 15.08843528108311,6917.87,95.437,540.693,538.776,0.0
53435.0,STARLINK-4542,PAYLOAD,2024-07-19 04:35:02,15.08847307,0.0001327,53.2142,270.6927,91.4122,268.7022,0.0003356,5.058e-05,0.0,0 STARLINK-4542,1 53435U 22097AZ  24201.19099961  .00005058  00000-0  33560-3 0  9991,2 53435  53.2142 270.6927 0001327  91.4122 268.7022 15.08847307107956,6917.858,95.437,540.641,538.805,0.0
53435.0,STARLINK-4542,PAYLOAD,2024-07-19 10:56:34,15.08843278,0.0001258,53.2167,269.4974,98.4838,261.6297,0.0001889,2.72e-05,0.0,0 STARLINK-4542,1 53435U 22097AZ  24201.45596060  .00002720  00000-0  18890-3 0  9994,2 53435  53.2167 269.4974 0001258  98.4838 261.6297 15.08843278108450,6917.87,95.437,540.606,538.865,0.0
53435.0,STARLINK-4542,PAYLOAD,2024-07-19 22:04:16,15.08857793,0.0001318,53.2167,267.415,98.5049,261.6092,0.0003868,5.876e-05,0.0,0 STARLINK-4542,1 53435U 22097AZ  24201.91963258  .00005876  00000-0  38680-3 0  9996,2 53435  53.2167 267.4150 0001318  98.5049 261.6092 15.08857793108524,6917.826,95.436,540.603,538.779,0.0
53435.0,STARLINK-4542,PAYLOAD,2024-07-20 10:47:21,15.08838032,0.0001569,53.2146,265.0397,87.3633,272.7538,-0.00015369,-2.733e-05,0.0,0 STARLINK-4542,1 53435U 22097AZ  24202.44955600 -.00002733  00000-0 -15369-3 0  9997,2 53435  53.2146 265.0397 0001569  87.3633 272.7538 15.08838032108142,6917.886,95.438,540.837,538.666,0.0
53435.0,STARLINK-4542,PAYLOAD,2024-07-21 09:02:45,15.08838341,0.0001461,53.2167,260.8737,98.7087,261.4071,-1.012e-05,-4.49e-06,0.0,0 STARLINK-4542,1 53435U 22097AZ  24203.37691830 -.00000449  00000-0 -10120-4 0  9995,2 53435  53.2167 260.8737 0001461  98.7087 261.4071 15.08838341108742,6917.885,95.438,540.761,538.74,0.0
53435.0,STARLINK-4542,PAYLOAD,2024-07-22 04:07:23,15.08839429,0.0001372,53.2159,257.307,87.8256,272.2894,0.00012607,1.719e-05,0.0,0 STARLINK-4542,1 53435U 22097AZ  24204.17180157  .00001719  00000-0  12607-3 0  9999,2 53435  53.2159 257.3070 0001372  87.8256 272.2894 15.08839429108406,6917.882,95.438,540.696,538.798,0.0
53435.0,STARLINK-4542,PAYLOAD,2024-07-22 10:28:56,15.08835363,0.0001407,53.2158,256.1173,93.3564,266.7589,0.00028363,4.228e-05,0.0,0 STARLINK-4542,1 53435U 22097AZ  24204.43676549  .00004228  00000-0  28363-3 0  9997,2 53435  53.2158 256.1173 0001407  93.3564 266.7589 15.08835363108906,6917.895,95.438,540.733,538.786,0.0
53435.0,STARLINK-4542,PAYLOAD,2024-07-23 10:19:43,15.08839386,0.0001321,53.215,251.6574,101.4254,258.6887,0.00015809,2.229e-05,0.0,0 STARLINK-4542,1 53435U 22097AZ  24205.43036516  .00002229  00000-0  15809-3 0  9992,2 53435  53.2150 251.6574 0001321 101.4254 258.6887 15.08839386108590,6917.882,95.438,540.661,538.833,0.0
53435.0,STARLINK-4542,PAYLOAD,2024-07-24 11:45:54,15.08836331,0.0001248,53.2144,246.8987,98.473,261.6403,5.547e-05,5.95e-06,0.0,0 STARLINK-4542,1 53435U 22097AZ  24206.49020884  .00000595  00000-0  55470-4 0  9993,2 53435  53.2144 246.8987 0001248  98.4730 261.6403 15.08836331108752,6917.892,95.438,540.62,538.893,0.0
53435.0,STARLINK-4542,PAYLOAD,2024-07-25 06:50:31,15.08841377,0.000117,53.214,243.33,95.9366,264.1759,0.00013565,1.872e-05,0.0,0 STARLINK-4542,1 53435U 22097AZ  24207.28508713  .00001872  00000-0  13565-3 0  9990,2 53435  53.2140 243.3300 0001170  95.9366 264.1759 15.08841377109333,6917.876,95.437,540.551,538.932,0.0
53435.0,STARLINK-4542,PAYLOAD,2024-07-25 11:36:40,15.08846087,0.0001199,53.2152,242.438,96.7926,263.3203,0.0001807,2.59e-05,0.0,0 STARLINK-4542,1 53435U 22097AZ  24207.48380509  .00002590  00000-0  18070-3 0  9997,2 53435  53.2152 242.4380 0001199  96.7926 263.3203 15.08846087108906,6917.862,95.437,540.556,538.897,0.0
53435.0,STARLINK-4542,PAYLOAD,2024-07-26 09:52:04,15.08846082,0.0001233,53.2141,238.2736,101.3735,258.7396,0.00017961,2.572e-05,0.0,0 STARLINK-4542,1 53435U 22097AZ  24208.41116354  .00002572  00000-0  17961-3 0  9994,2 53435  53.2141 238.2736 0001233 101.3735 258.7396 15.08846082109505,6917.862,95.437,540.58,538.874,0.0
53435.0,STARLINK-4542,PAYLOAD,2024-07-26 19:24:23,15.08847057,0.0001247,53.2142,236.4895,98.4336,261.6798,0.00014897,2.084e-05,0.0,0 STARLINK-4542,1 53435U 22097AZ  24208.80860207  .00002084  00000-0  14897-3 0  9993,2 53435  53.2142 236.4895 0001247  98.4336 261.6798 15.08847057109108,6917.859,95.437,540.586,538.861,0.0
53435.0,STARLINK-4542,PAYLOAD,2024-07-27 06:32:05,15.08840033,0.0001274,53.2149,234.4061,111.1689,248.9439,-5.0298e-05,-1.088e-05,0.0,0 STARLINK-4542,1 53435U 22097AZ  24209.27228470 -.00001088  00000-0 -50298-4 0  9996,2 53435  53.2149 234.4061 0001274 111.1689 248.9439 15.08840033109637,6917.88,95.438,540.627,538.864,0.0
53435.0,STARLINK-4542,PAYLOAD,2024-07-27 08:07:28,15.088371,0.0001518,53.2147,234.1141,81.0232,279.0932,-6.2419e-05,-1.281e-05,0.0,0 STARLINK-4542,1 53435U 22097AZ  24209.33852836 -.00001281  00000-0 -62419-4 0  9995,2 53435  53.2147 234.1141 0001518  81.0232 279.0932 15.08837100109185,6917.889,95.438,540.804,538.704,0.0
53435.0,STARLINK-4542,PAYLOAD,2024-07-28 11:09:01,15.08841643,0.0001516,53.2163,229.0547,105.4149,254.7011,3.9006e-05,3.33e-06,0.0,0 STARLINK-4542,1 53435U 22097AZ  24210.46460453  .00000333  00000-0  39006-4 0  9992,2 53435  53.2163 229.0547 0001516 105.4149 254.7011 15.08841643109356,6917.875,95.437,540.789,538.692,0.0
53435.0,STARLINK-4542,PAYLOAD,2024-07-29 07:49:02,15.08836659,0.0001382,53.2157,225.1909,89.374,270.741,9.7093e-05,1.258e-05,0.0,0 STARLINK-4542,1 53435U 22097AZ  24211.32572809  .00001258  00000-0  97093-4 0  9994,2 53435  53.2157 225.1909 0001382  89.3740 270.7410 15.08836659109943,6917.891,95.438,540.712,538.8,0.0
53435.0,STARLINK-4542,PAYLOAD,2024-07-30 07:39:50,15.0883941,0.0001319,53.2155,220.7292,85.7046,274.4097,4.5494e-05,4.36e-06,0.0,0 STARLINK-4542,1 53435U 22097AZ  24212.31932902  .00000436  00000-0  45494-4 0  9993,2 53435  53.2155 220.7292 0001319  85.7046 274.4097 15.08839410110094,6917.882,95.438,540.66,538.835,0.0
53435.0,STARLINK-4542,PAYLOAD,2024-07-30 17:12:08,15.08842227,0.000133,53.2157,218.9446,84.7546,275.3598,7.7019e-05,9.38e-06,0.0,0 STARLINK-4542,1 53435U 22097AZ  24212.71676654  .00000938  00000-0  77019-4 0  9991,2 53435  53.2157 218.9446 0001330  84.7546 275.3598 15.08842227109693,6917.874,95.437,540.659,538.819,0.0
53435.0,STARLINK-4542,PAYLOAD,2024-07-31 07:30:37,15.08832416,0.0001487,53.2166,216.272,97.2057,262.9105,2.847e-05,1.65e-06,0.0,0 STARLINK-4542,1 53435U 22097AZ  24213.31293656  .00000165  00000-0  28470-4 0  9994,2 53435  53.2166 216.2720 0001487  97.2057 262.9105 15.08832416110246,6917.904,95.438,540.797,538.74,0.0
53435.0,STARLINK-4542,PAYLOAD,2024-07-31 17:02:56,15.08835774,0.0001488,53.2168,214.4876,96.3256,263.7906,4.8975e-05,4.91e-06,0.0,0 STARLINK-4542,1 53435U 22097AZ  24213.71037515  .00000491  00000-0  48975-4 0  9992,2 53435  53.2168 214.4876 0001488  96.3256 263.7906 15.08835774110307,6917.893,95.438,540.788,538.729,0.0
53435.0,STARLINK-4542,PAYLOAD,2024-08-01 05:46:00,15.08841974,0.0001478,53.2165,212.1082,99.7505,260.3654,0.00015618,2.199e-05,0.0,0 STARLINK-4542,1 53435U 22097AZ  24214.24028859  .00002199  00000-0  15618-3 0  9996,2 53435  53.2165 212.1082 0001478  99.7505 260.3654 15.08841974109929,6917.874,95.437,540.762,538.717,0.0
53435.0,STARLINK-4542,PAYLOAD,2024-08-01 08:56:47,15.08846337,0.0001422,53.2162,211.5124,94.9436,265.1719,0.00013149,1.806e-05,0.0,0 STARLINK-4542,1 53435U 22097AZ  24214.37276670  .00001806  00000-0  13149-3 0  9997,2 53435  53.2162 211.5124 0001422  94.9436 265.1719 15.08846337110403,6917.861,95.437,540.71,538.742,0.0
53435.0,STARLINK-4542,PAYLOAD,2024-08-01 23:15:15,15.08841763,0.0001569,53.2163,208.8376,91.9335,268.1836,0.00013292,1.828e-05,0.0,0 STARLINK-4542,1 53435U 22097AZ  24214.96892836  .00001828  00000-0  13292-3 0  9993,2 53435  53.2163 208.8376 0001569  91.9335 268.1836 15.08841763110499,6917.875,95.437,540.825,538.655,0.0
53435.0,STARLINK-4542,PAYLOAD,2024-08-02 05:36:48,15.08835155,0.0001537,53.2163,207.6463,87.8344,272.2824,6.0743e-05,6.79e-06,0.0,0 STARLINK-4542,1 53435U 22097AZ  24215.23389620  .00000679  00000-0  60743-4 0  9993,2 53435  53.2163 207.6463 0001537  87.8344 272.2824 15.08835155110077,6917.895,95.438,540.823,538.697,0.0
53435.0,STARLINK-4542,PAYLOAD,2024-08-02 08:47:34,15.08840159,0.0001419,53.2159,207.0502,81.7391,278.3762,8.2077e-05,1.019e-05,0.0,0 STARLINK-4542,1 53435U 22097AZ  24215.36637227  .00001019  00000-0  82077-4 0  9999,2 53435  53.2159 207.0502 0001419  81.7391 278.3762 15.08840159110555,6917.88,95.438,540.727,538.763,0.0
53435.0,STARLINK-4542,PAYLOAD,2024-08-02 16:44:29,15.0884425,0.0001329,53.2156,205.5628,87.6534,272.461,0.0001016,1.33e-05,0.0,0 STARLINK-4542,1 53435U 22097AZ  24215.69756840  .00001330  00000-0  10160-3 0  9997,2 53435  53.2156 205.5628 0001329  87.6534 272.4610 15.08844250110146,6917.867,95.437,540.652,538.813,0.0
53435.0,STARLINK-4542,PAYLOAD,2024-08-03 08:38:21,15.08846339,0.0001481,53.216,202.5902,88.6184,271.4978,4.0176e-05,3.52e-06,0.0,0 STARLINK-4542,1 53435U 22097AZ  24216.35996812  .00000352  00000-0  40176-4 0  9990,2 53435  53.2160 202.5902 0001481  88.6184 271.4978 15.08846339110702,6917.861,95.437,540.751,538.701,0.0
